{
  "norad_id": 64548,
  "name": "GHGSAT-C13",
  "history": [
    {
      "epoch": "2026-03-28T21:50:25.499040",
      "apogee_km": 506.24126768517544,
      "perigee_km": 503.0103611648292,
      "latitude_deg": 75.87675164217023,
      "longitude_deg": 2.1616656000260264,
      "semi_major_axis_km": 6882.762814425002,
      "eccentricity": 0.00023471,
      "inclination_deg": 97.4664,
      "raan_deg": 203.9577,
      "arg_perigee_deg": 68.4808,
      "mean_anomaly_deg": 291.6677,
      "mean_motion_rev_day": 15.20402435
    },
    {
      "epoch": "2026-03-29T04:09:30.784608",
      "apogee_km": 506.22666699739966,
      "perigee_km": 502.99865740582754,
      "latitude_deg": -70.01257370208859,
      "longitude_deg": 27.434205119963735,
      "semi_major_axis_km": 6882.749662201613,
      "eccentricity": 0.0002345,
      "inclination_deg": 97.4665,
      "raan_deg": 204.2185,
      "arg_perigee_deg": 67.9227,
      "mean_anomaly_deg": 292.2257,
      "mean_motion_rev_day": 15.20406793
    }
  ]
}